[{"OBJECT_NAME":"TIANTONG-1 3","OBJECT_ID":"2021-003A","EPOCH":"2026-03-28T22:01:08.976000","MEAN_MOTION":1.00270088,"ECCENTRICITY":0.00033018,"INCLINATION":1.8282,"RA_OF_ASC_NODE":334.5274,"ARG_OF_PERICENTER":29.0257,"MEAN_ANOMALY":234.5658,"EPHEMERIS_TYPE":0,"CLASSIFICATION_TYPE":"U","NORAD_CAT_ID":47321,"ELEMENT_SET_NO":999,"REV_AT_EPOCH":1915,"BSTAR":0,"MEAN_MOTION_DOT":-1.75e-6,"MEAN_MOTION_DDOT":0},{"OBJECT_NAME":"TJS-6","OBJECT_ID":"2021-010A","EPOCH":"2026-03-28T20:46:01.181280","MEAN_MOTION":1.00271349,"ECCENTRICITY":0.00031575,"INCLINATION":0.3927,"RA_OF_ASC_NODE":89.4138,"ARG_OF_PERICENTER":296.7827,"MEAN_ANOMALY":290.0378,"EPHEMERIS_TYPE":0,"CLASSIFICATION_TYPE":"U","NORAD_CAT_ID":47613,"ELEMENT_SET_NO":999,"REV_AT_EPOCH":1900,"BSTAR":0,"MEAN_MOTION_DOT":2.3e-7,"MEAN_MOTION_DDOT":0},{"OBJECT_NAME":"SBIRS GEO-5 (USA 315)","OBJECT_ID":"2021-042A","EPOCH":"2026-03-28T16:56:30.399360","MEAN_MOTION":1.00271725,"ECCENTRICITY":0.0001435,"INCLINATION":5.2068,"RA_OF_ASC_NODE":328.5192,"ARG_OF_PERICENTER":26.6263,"MEAN_ANOMALY":178.8722,"EPHEMERIS_TYPE":0,"CLASSIFICATION_TYPE":"U","NORAD_CAT_ID":48618,"ELEMENT_SET_NO":999,"REV_AT_EPOCH":1796,"BSTAR":0,"MEAN_MOTION_DOT":-2.9e-6,"MEAN_MOTION_DDOT":0},{"OBJECT_NAME":"FENGYUN 4B","OBJECT_ID":"2021-047A","EPOCH":"2026-03-28T22:07:38.354016","MEAN_MOTION":1.00268005,"ECCENTRICITY":0.00059908,"INCLINATION":0.066,"RA_OF_ASC_NODE":293.4265,"ARG_OF_PERICENTER":83.9544,"MEAN_ANOMALY":245.5909,"EPHEMERIS_TYPE":0,"CLASSIFICATION_TYPE":"U","NORAD_CAT_ID":48808,"ELEMENT_SET_NO":999,"REV_AT_EPOCH":1776,"BSTAR":0,"MEAN_MOTION_DOT":-3.49e-6,"MEAN_MOTION_DDOT":0},{"OBJECT_NAME":"SXM-8","OBJECT_ID":"2021-049A","EPOCH":"2026-03-28T04:32:38.601024","MEAN_MOTION":1.00270114,"ECCENTRICITY":0.00044372,"INCLINATION":0.0456,"RA_OF_ASC_NODE":23.667,"ARG_OF_PERICENTER":16.5628,"MEAN_ANOMALY":128.3724,"EPHEMERIS_TYPE":0,"CLASSIFICATION_TYPE":"U","NORAD_CAT_ID":48838,"ELEMENT_SET_NO":999,"REV_AT_EPOCH":1778,"BSTAR":0,"MEAN_MOTION_DOT":-2.25e-6,"MEAN_MOTION_DDOT":0},{"OBJECT_NAME":"TIANLIAN 1-05","OBJECT_ID":"2021-063A","EPOCH":"2026-03-28T21:42:33.259104","MEAN_MOTION":1.00272169,"ECCENTRICITY":0.00038265,"INCLINATION":1.3872,"RA_OF_ASC_NODE":81.3123,"ARG_OF_PERICENTER":241.6643,"MEAN_ANOMALY":205.7119,"EPHEMERIS_TYPE":0,"CLASSIFICATION_TYPE":"U","NORAD_CAT_ID":49011,"ELEMENT_SET_NO":999,"REV_AT_EPOCH":1727,"BSTAR":0,"MEAN_MOTION_DOT":8.9e-7,"MEAN_MOTION_DDOT":0},{"OBJECT_NAME":"STAR ONE D2","OBJECT_ID":"2021-069A","EPOCH":"2026-03-28T19:35:08.399616","MEAN_MOTION":1.00268886,"ECCENTRICITY":7.653e-5,"INCLINATION":0.0253,"RA_OF_ASC_NODE":177.0145,"ARG_OF_PERICENTER":209.2835,"MEAN_ANOMALY":23.6435,"EPHEMERIS_TYPE":0,"CLASSIFICATION_TYPE":"U","NORAD_CAT_ID":49055,"ELEMENT_SET_NO":999,"REV_AT_EPOCH":1712,"BSTAR":0,"MEAN_MOTION_DOT":0,"MEAN_MOTION_DDOT":0},{"OBJECT_NAME":"EUTELSAT QUANTUM","OBJECT_ID":"2021-069B","EPOCH":"2026-03-28T21:53:38.711904","MEAN_MOTION":1.0027333,"ECCENTRICITY":0.00023346,"INCLINATION":0.0418,"RA_OF_ASC_NODE":47.5849,"ARG_OF_PERICENTER":316.8988,"MEAN_ANOMALY":197.9309,"EPHEMERIS_TYPE":0,"CLASSIFICATION_TYPE":"U","NORAD_CAT_ID":49056,"ELEMENT_SET_NO":999,"REV_AT_EPOCH":1712,"BSTAR":0,"MEAN_MOTION_DOT":1.06e-6,"MEAN_MOTION_DDOT":0},{"OBJECT_NAME":"ZHONGXING-2E","OBJECT_ID":"2021-071A","EPOCH":"2026-03-28T22:05:46.033152","MEAN_MOTION":1.00270007,"ECCENTRICITY":0.00011914,"INCLINATION":0.0235,"RA_OF_ASC_NODE":359.9145,"ARG_OF_PERICENTER":139.9029,"MEAN_ANOMALY":115.995,"EPHEMERIS_TYPE":0,"CLASSIFICATION_TYPE":"U","NORAD_CAT_ID":49062,"ELEMENT_SET_NO":999,"REV_AT_EPOCH":1723,"BSTAR":0,"MEAN_MOTION_DOT":-3.11e-6,"MEAN_MOTION_DDOT":0},{"OBJECT_NAME":"TJS-7","OBJECT_ID":"2021-077A","EPOCH":"2026-03-28T21:09:06.467040","MEAN_MOTION":1.00271687,"ECCENTRICITY":0.00020436,"INCLINATION":0.3012,"RA_OF_ASC_NODE":87.1547,"ARG_OF_PERICENTER":279.0471,"MEAN_ANOMALY":37.8943,"EPHEMERIS_TYPE":0,"CLASSIFICATION_TYPE":"U","NORAD_CAT_ID":49115,"ELEMENT_SET_NO":999,"REV_AT_EPOCH":874,"BSTAR":0,"MEAN_MOTION_DOT":-1.43e-6,"MEAN_MOTION_DDOT":0},{"OBJECT_NAME":"CHINASAT 9B","OBJECT_ID":"2021-080A","EPOCH":"2026-03-23T19:28:32.771424","MEAN_MOTION":1.0027064,"ECCENTRICITY":0.00023339,"INCLINATION":0.0346,"RA_OF_ASC_NODE":93.1793,"ARG_OF_PERICENTER":234.7762,"MEAN_ANOMALY":246.8822,"EPHEMERIS_TYPE":0,"CLASSIFICATION_TYPE":"U","NORAD_CAT_ID":49125,"ELEMENT_SET_NO":999,"REV_AT_EPOCH":1679,"BSTAR":0,"MEAN_MOTION_DOT":-3.17e-6,"MEAN_MOTION_DDOT":0},{"OBJECT_NAME":"SHIJIAN-21 (SJ-21)","OBJECT_ID":"2021-094A","EPOCH":"2026-03-28T23:05:32.553312","MEAN_MOTION":1.00275859,"ECCENTRICITY":0.00479147,"INCLINATION":4.9244,"RA_OF_ASC_NODE":61.6252,"ARG_OF_PERICENTER":170.2024,"MEAN_ANOMALY":68.8509,"EPHEMERIS_TYPE":0,"CLASSIFICATION_TYPE":"U","NORAD_CAT_ID":49330,"ELEMENT_SET_NO":999,"REV_AT_EPOCH":455,"BSTAR":0,"MEAN_MOTION_DOT":-3.63e-6,"MEAN_MOTION_DDOT":0},{"OBJECT_NAME":"SES-17","OBJECT_ID":"2021-095A","EPOCH":"2026-03-28T21:18:43.046208","MEAN_MOTION":1.002693,"ECCENTRICITY":0.00010305,"INCLINATION":0.044,"RA_OF_ASC_NODE":26.1825,"ARG_OF_PERICENTER":331.3925,"MEAN_ANOMALY":81.2849,"EPHEMERIS_TYPE":0,"CLASSIFICATION_TYPE":"U","NORAD_CAT_ID":49332,"ELEMENT_SET_NO":999,"REV_AT_EPOCH":1704,"BSTAR":0,"MEAN_MOTION_DOT":-2.92e-6,"MEAN_MOTION_DDOT":0},{"OBJECT_NAME":"SYRACUSE 4A","OBJECT_ID":"2021-095B","EPOCH":"2026-03-28T21:53:38.711904","MEAN_MOTION":1.00269945,"ECCENTRICITY":0.00015925,"INCLINATION":0.0222,"RA_OF_ASC_NODE":189.4558,"ARG_OF_PERICENTER":180.6794,"MEAN_ANOMALY":190.1034,"EPHEMERIS_TYPE":0,"CLASSIFICATION_TYPE":"U","NORAD_CAT_ID":49333,"ELEMENT_SET_NO":999,"REV_AT_EPOCH":1714,"BSTAR":0,"MEAN_MOTION_DOT":0,"MEAN_MOTION_DDOT":0},{"OBJECT_NAME":"QZS-1R (MICHIBIKI-1R)","OBJECT_ID":"2021-096A","EPOCH":"2026-03-28T20:31:17.592672","MEAN_MOTION":1.0028248,"ECCENTRICITY":0.07493261,"INCLINATION":37.2973,"RA_OF_ASC_NODE":80.7659,"ARG_OF_PERICENTER":270.2513,"MEAN_ANOMALY":278.3326,"EPHEMERIS_TYPE":0,"CLASSIFICATION_TYPE":"U","NORAD_CAT_ID":49336,"ELEMENT_SET_NO":999,"REV_AT_EPOCH":1620,"BSTAR":0,"MEAN_MOTION_DOT":-2.31e-6,"MEAN_MOTION_DDOT":0},{"OBJECT_NAME":"ZHONGXING-1D","OBJECT_ID":"2021-114A","EPOCH":"2026-03-28T20:32:17.498112","MEAN_MOTION":1.00273454,"ECCENTRICITY":0.00022408,"INCLINATION":0.0504,"RA_OF_ASC_NODE":296.1042,"ARG_OF_PERICENTER":297.5547,"MEAN_ANOMALY":30.8184,"EPHEMERIS_TYPE":0,"CLASSIFICATION_TYPE":"U","NORAD_CAT_ID":49505,"ELEMENT_SET_NO":999,"REV_AT_EPOCH":1601,"BSTAR":0,"MEAN_MOTION_DOT":-3.56e-6,"MEAN_MOTION_DDOT":0},{"OBJECT_NAME":"STPSAT-6","OBJECT_ID":"2021-118A","EPOCH":"2026-03-28T21:05:44.290176","MEAN_MOTION":1.0027196,"ECCENTRICITY":0.00024061,"INCLINATION":0.1156,"RA_OF_ASC_NODE":84.5935,"ARG_OF_PERICENTER":242.9688,"MEAN_ANOMALY":63.2777,"EPHEMERIS_TYPE":0,"CLASSIFICATION_TYPE":"U","NORAD_CAT_ID":49817,"ELEMENT_SET_NO":999,"REV_AT_EPOCH":1576,"BSTAR":0,"MEAN_MOTION_DOT":-6.4e-7,"MEAN_MOTION_DDOT":0}]
