TIANTONG-1 3            
1 47321U 21003A   26087.91746500 -.00000175  00000+0  00000+0 0  9990
2 47321   1.8282 334.5274 0003301  29.0257 234.5658  1.00270088 19155
TJS-6                   
1 47613U 21010A   26087.86529145  .00000023  00000+0  00000+0 0  9991
2 47613   0.3927  89.4138 0003157 296.7827 290.0378  1.00271349 19000
SBIRS GEO-5 (USA 315)   
1 48618U 21042A   26087.70590740 -.00000290  00000+0  00000+0 0  9991
2 48618   5.2068 328.5192 0001435  26.6263 178.8722  1.00271725 17961
FENGYUN 4B              
1 48808U 21047A   26087.92197169 -.00000349  00000+0  00000+0 0  9994
2 48808   0.0660 293.4265 0005990  83.9544 245.5909  1.00268005 17766
SXM-8                   
1 48838U 21049A   26087.18933566 -.00000225  00000+0  00000+0 0  9999
2 48838   0.0456  23.6670 0004437  16.5628 128.3724  1.00270114 17784
TIANLIAN 1-05           
1 49011U 21063A   26087.90455161  .00000089  00000+0  00000+0 0  9996
2 49011   1.3872  81.3123 0003826 241.6643 205.7119  1.00272169 17271
STAR ONE D2             
1 49055U 21069A   26087.81606944  .00000000  00000+0  00000+0 0  9990
2 49055   0.0253 177.0145 0000765 209.2835  23.6435  1.00268886 17120
EUTELSAT QUANTUM        
1 49056U 21069B   26087.91225361  .00000106  00000+0  00000+0 0  9999
2 49056   0.0418  47.5849 0002334 316.8988 197.9309  1.00273330 17129
ZHONGXING-2E            
1 49062U 21071A   26087.92067168 -.00000311  00000+0  00000+0 0  9998
2 49062   0.0235 359.9145 0001191 139.9029 115.9950  1.00270007 17234
TJS-7                   
1 49115U 21077A   26087.88132485 -.00000143  00000+0  00000+0 0  9996
2 49115   0.3012  87.1547 0002043 279.0471  37.8943  1.00271687  8744
CHINASAT 9B             
1 49125U 21080A   26082.81149041 -.00000317  00000+0  00000+0 0  9998
2 49125   0.0346  93.1793 0002333 234.7762 246.8822  1.00270640 16795
SHIJIAN-21 (SJ-21)      
1 49330U 21094A   26087.96218233 -.00000363  00000+0  00000+0 0  9993
2 49330   4.9244  61.6252 0047914 170.2024  68.8509  1.00275859  4554
SES-17                  
1 49332U 21095A   26087.88799822 -.00000292  00000+0  00000+0 0  9996
2 49332   0.0440  26.1825 0001030 331.3925  81.2849  1.00269300 17040
SYRACUSE 4A             
1 49333U 21095B   26087.91225361  .00000000  00000+0  00000+0 0  9999
2 49333   0.0222 189.4558 0001592 180.6794 190.1034  1.00269945 17149
QZS-1R (MICHIBIKI-1R)   
1 49336U 21096A   26087.85506473 -.00000231  00000+0  00000+0 0  9999
2 49336  37.2973  80.7659 0749326 270.2513 278.3326  1.00282480 16209
ZHONGXING-1D            
1 49505U 21114A   26087.85575808 -.00000356  00000+0  00000+0 0  9994
2 49505   0.0504 296.1042 0002240 297.5547  30.8184  1.00273454 16013
STPSAT-6                
1 49817U 21118A   26087.87898484 -.00000064  00000+0  00000+0 0  9990
2 49817   0.1156  84.5935 0002406 242.9688  63.2777  1.00271960 15766
